NORAD_CAT_ID,OBJECT_NAME,OBJECT_TYPE,EPOCH,MEAN_MOTION,ECCENTRICITY,INCLINATION,RA_OF_ASC_NODE,ARG_OF_PERICENTER,MEAN_ANOMALY,BSTAR,MEAN_MOTION_DOT,MEAN_MOTION_DDOT,TLE_LINE0,TLE_LINE1,TLE_LINE2,SEMIMAJOR_AXIS,PERIOD,APOGEE,PERIGEE,DECAYED
56795.0,STARLINK-6061,PAYLOAD,2024-06-02 10:20:55,14.98330864,0.0003322,69.9984,151.2354,269.5491,90.5287,7.137e-07,-8.5e-07,0.0,0 STARLINK-6061,1 56795U 23078AE  24154.43120060 -.00000085  00000-0  71370-6 0  9992,2 56795  69.9984 151.2354 0003322 269.5491  90.5287 14.98330864 56521,6950.19,96.107,574.364,569.746,0.0
56795.0,STARLINK-6061,PAYLOAD,2024-06-03 05:34:32,14.98327416,0.0003307,69.9985,149.2155,270.1086,89.9694,-1.1748e-05,-2.33e-06,0.0,0 STARLINK-6061,1 56795U 23078AE  24155.23232354 -.00000233  00000-0 -11748-4 0  9998,2 56795  69.9985 149.2155 0003307 270.1086  89.9694 14.98327416 56904,6950.201,96.107,574.364,569.767,0.0
56795.0,STARLINK-6061,PAYLOAD,2024-06-03 10:22:56,14.98328285,0.0003298,69.9985,148.7104,270.481,89.5972,-1.5934e-06,-1.12e-06,0.0,0 STARLINK-6061,1 56795U 23078AE  24155.43260294 -.00000112  00000-0 -15934-5 0  9992,2 56795  69.9985 148.7104 0003298 270.4810  89.5972 14.98328285 56673,6950.198,96.107,574.355,569.771,0.0
56795.0,STARLINK-6061,PAYLOAD,2024-06-03 23:12:01,14.98331913,0.0003295,69.9986,147.3637,269.5979,90.4803,2.7902e-05,2.4e-06,0.0,0 STARLINK-6061,1 56795U 23078AE  24155.96667957  .00000240  00000-0  27902-4 0  9994,2 56795  69.9986 147.3637 0003295 269.5979  90.4803 14.98331913 56757,6950.187,96.107,574.342,569.762,0.0
56795.0,STARLINK-6061,PAYLOAD,2024-06-04 05:36:33,14.98333606,0.000329,69.9986,146.6905,269.1814,90.8968,3.9877e-05,3.83e-06,0.0,0 STARLINK-6061,1 56795U 23078AE  24156.23371762  .00000383  00000-0  39877-4 0  9993,2 56795  69.9986 146.6905 0003290 269.1814  90.8968 14.98333606 57057,6950.182,96.107,574.333,569.76,0.0
56795.0,STARLINK-6061,PAYLOAD,2024-06-04 08:48:49,14.98334331,0.0003275,69.9986,146.3538,269.3905,90.6878,4.7552e-05,4.74e-06,0.0,0 STARLINK-6061,1 56795U 23078AE  24156.36723662  .00000474  00000-0  47552-4 0  9997,2 56795  69.9986 146.3538 0003275 269.3905  90.6878 14.98334331 56819,6950.179,96.107,574.321,569.768,0.0
56795.0,STARLINK-6061,PAYLOAD,2024-06-04 16:49:29,14.98331673,0.0003318,69.9985,145.5119,270.2021,89.8758,2.3966e-05,1.93e-06,0.0,0 STARLINK-6061,1 56795U 23078AE  24156.70103798  .00000193  00000-0  23966-4 0  9998,2 56795  69.9985 145.5119 0003318 270.2021  89.8758 14.98331673 56860,6950.188,96.107,574.359,569.747,0.0
56795.0,STARLINK-6061,PAYLOAD,2024-06-05 05:38:34,14.98328838,0.0003306,69.9984,144.1654,269.955,90.123,4.9312e-06,-3.4e-07,0.0,0 STARLINK-6061,1 56795U 23078AE  24157.23512014 -.00000034  00000-0  49312-5 0  9991,2 56795  69.9984 144.1654 0003306 269.9550  90.1230 14.98328838 57205,6950.196,96.107,574.359,569.764,0.0
56795.0,STARLINK-6061,PAYLOAD,2024-06-05 08:50:50,14.98330857,0.0003282,69.9985,143.8288,270.1844,89.8939,2.6186e-05,2.19e-06,0.0,0 STARLINK-6061,1 56795U 23078AE  24157.36863824  .00000219  00000-0  26186-4 0  9990,2 56795  69.9985 143.8288 0003282 270.1844  89.8939 14.98330857 56965,6950.19,96.107,574.336,569.774,0.0
56795.0,STARLINK-6061,PAYLOAD,2024-06-05 16:51:30,14.98331033,0.0003262,69.9986,142.9871,270.2131,89.8654,5.6767e-06,-2.5e-07,0.0,0 STARLINK-6061,1 56795U 23078AE  24157.70243834 -.00000025  00000-0  56767-5 0  9996,2 56795  69.9986 142.9871 0003262 270.2131  89.8654 14.98331033 57010,6950.19,96.107,574.322,569.788,0.0
56795.0,STARLINK-6061,PAYLOAD,2024-06-06 05:40:35,14.98332674,0.0003244,69.9987,141.6408,270.248,89.8307,-3.8205e-05,-5.49e-06,0.0,0 STARLINK-6061,1 56795U 23078AE  24158.23651797 -.00000549  00000-0 -38205-4 0  9994,2 56795  69.9987 141.6408 0003244 270.2480  89.8307 14.98332674 57354,6950.185,96.107,574.304,569.795,0.0
56795.0,STARLINK-6061,PAYLOAD,2024-06-06 08:52:51,14.98334317,0.0003222,69.9987,141.3041,270.1566,89.9224,-1.8429e-05,-3.13e-06,0.0,0 STARLINK-6061,1 56795U 23078AE  24158.37003606 -.00000313  00000-0 -18429-4 0  9994,2 56795  69.9987 141.3041 0003222 270.1566  89.9224 14.98334317 57113,6950.18,96.107,574.284,569.805,0.0
56795.0,STARLINK-6061,PAYLOAD,2024-06-07 08:54:52,14.98329271,0.0003141,69.999,138.7792,270.0537,90.0262,6.0221e-07,-8.6e-07,0.0,0 STARLINK-6061,1 56795U 23078AE  24159.37143830 -.00000086  00000-0  60221-6 0  9994,2 56795  69.9990 138.7792 0003141 270.0537  90.0262 14.98329271 57520,6950.195,96.107,574.243,569.877,0.0
56795.0,STARLINK-6061,PAYLOAD,2024-06-07 21:43:56,14.98331262,0.0003093,69.999,137.4326,270.4783,89.6022,1.5241e-05,8.9e-07,0.0,0 STARLINK-6061,1 56795U 23078AE  24159.90551664  .00000089  00000-0  15241-4 0  9993,2 56795  69.9990 137.4326 0003093 270.4783  89.6022 14.98331262 57343,6950.189,96.107,574.204,569.904,0.0
56795.0,STARLINK-6061,PAYLOAD,2024-06-08 07:20:44,14.98334824,0.0003029,69.999,136.4226,270.4825,89.5986,5.6529e-05,5.82e-06,0.0,0 STARLINK-6061,1 56795U 23078AE  24160.30607253  .00000582  00000-0  56529-4 0  9997,2 56795  69.9990 136.4226 0003029 270.4825  89.5986 14.98334824 57667,6950.178,96.107,574.148,569.938,0.0
56795.0,STARLINK-6061,PAYLOAD,2024-06-08 15:21:24,14.98352754,0.0002912,69.9996,135.5793,277.5965,82.4863,-0.00034961,-4.264e-05,0.0,0 STARLINK-6061,1 56795U 23078AE  24160.63987019 -.00004264  00000-0 -34961-3 0  9992,2 56795  69.9996 135.5793 0002912 277.5965  82.4863 14.98352754 57719,6950.123,96.106,574.011,569.964,0.0
56795.0,STARLINK-6061,PAYLOAD,2024-06-08 21:45:57,14.98328712,0.000232,70.0009,134.9067,268.2904,91.7989,2.3431e-06,-6.5e-07,0.0,0 STARLINK-6061,1 56795U 23078AE  24160.90691908 -.00000065  00000-0  23431-5 0  9997,2 56795  70.0009 134.9067 0002320 268.2904  91.7989 14.98328712 57491,6950.197,96.107,573.674,570.449,0.0
56795.0,STARLINK-6061,PAYLOAD,2024-06-09 04:10:30,14.98326286,0.0002547,70.0002,134.235,261.847,98.24,-4.4184e-05,-6.2e-06,0.0,0 STARLINK-6061,1 56795U 23078AE  24161.17396168 -.00000620  00000-0 -44184-4 0  9992,2 56795  70.0002 134.2350 0002547 261.8470  98.2400 14.98326286 57797,6950.204,96.107,573.84,570.299,0.0
56795.0,STARLINK-6061,PAYLOAD,2024-06-09 07:22:46,14.98324767,0.0002788,69.9994,133.8981,268.0469,92.0371,-3.7329e-05,-5.38e-06,0.0,0 STARLINK-6061,1 56795U 23078AE  24161.30748262 -.00000538  00000-0 -37329-4 0  9994,2 56795  69.9994 133.8981 0002788 268.0469  92.0371 14.98324767 57558,6950.209,96.107,574.012,570.136,0.0
56795.0,STARLINK-6061,PAYLOAD,2024-06-09 21:47:58,14.98327838,0.0002941,69.9989,132.3827,270.3387,89.7435,-3.5588e-05,-5.18e-06,0.0,0 STARLINK-6061,1 56795U 23078AE  24161.90832128 -.00000518  00000-0 -35588-4 0  9998,2 56795  69.9989 132.3827 0002941 270.3387  89.7435 14.98327838 57647,6950.2,96.107,574.109,570.021,0.0
56795.0,STARLINK-6061,PAYLOAD,2024-06-10 04:12:31,14.98330445,0.0002749,69.9995,131.7107,268.7218,91.3626,-1.6909e-05,-2.95e-06,0.0,0 STARLINK-6061,1 56795U 23078AE  24162.17535948 -.00000295  00000-0 -16909-4 0  9996,2 56795  69.9995 131.7107 0002749 268.7218  91.3626 14.98330445 57940,6950.192,96.107,573.967,570.146,0.0
56795.0,STARLINK-6061,PAYLOAD,2024-06-10 07:24:47,14.98330933,0.0002951,69.9995,131.3742,271.5476,88.5345,4.8619e-06,-3.5e-07,0.0,0 STARLINK-6061,1 56795U 23078AE  24162.30887854 -.00000035  00000-0  48619-5 0  9992,2 56795  69.9995 131.3742 0002951 271.5476  88.5345 14.98330933 57706,6950.19,96.107,574.106,570.004,0.0
56795.0,STARLINK-6061,PAYLOAD,2024-06-10 15:25:27,14.98333121,0.0003027,69.9988,130.5309,263.5307,96.5507,-3.8663e-05,-5.54e-06,0.0,0 STARLINK-6061,1 56795U 23078AE  24162.64267675 -.00000554  00000-0 -38663-4 0  9996,2 56795  69.9988 130.5309 0003027 263.5307  96.5507 14.98333121 57753,6950.183,96.107,574.152,569.944,0.0
56795.0,STARLINK-6061,PAYLOAD,2024-06-11 04:14:31,14.98328819,0.0002931,69.9987,129.185,270.5845,89.4978,6.4773e-05,6.8e-06,0.0,0 STARLINK-6061,1 56795U 23078AE  24163.17675824  .00000680  00000-0  64773-4 0  9993,2 56795  69.9987 129.1850 0002931 270.5845  89.4978 14.98328819 58094,6950.197,96.107,574.099,570.024,0.0
56795.0,STARLINK-6061,PAYLOAD,2024-06-11 07:26:47,14.98331034,0.0002865,69.999,128.8487,270.4862,89.5969,9.0412e-05,9.86e-06,0.0,0 STARLINK-6061,1 56795U 23078AE  24163.31027624  .00000986  00000-0  90412-4 0  9996,2 56795  69.9990 128.8487 0002865 270.4862  89.5969 14.98331034 57851,6950.19,96.107,574.046,570.063,0.0
56795.0,STARLINK-6061,PAYLOAD,2024-06-12 04:16:33,14.98328708,0.0002877,69.9989,126.6599,270.5323,89.5506,-2.38e-05,-3.77e-06,0.0,0 STARLINK-6061,1 56795U 23078AE  24164.17816136 -.00000377  00000-0 -23800-4 0  9998,2 56795  69.9989 126.6599 0002877 270.5323  89.5506 14.98328708 58240,6950.197,96.107,574.061,570.062,0.0
56795.0,STARLINK-6061,PAYLOAD,2024-06-12 05:52:41,14.98328639,0.0002878,69.9989,126.4916,270.5693,89.5137,-2.4067e-05,-3.8e-06,0.0,0 STARLINK-6061,1 56795U 23078AE  24164.24492144 -.00000380  00000-0 -24067-4 0  9995,2 56795  69.9989 126.4916 0002878 270.5693  89.5137 14.98328639 57996,6950.197,96.107,574.062,570.062,0.0
56795.0,STARLINK-6061,PAYLOAD,2024-06-12 21:54:01,14.98330986,0.0002831,69.9991,124.8081,271.1508,88.9326,4.736e-06,-3.6e-07,0.0,0 STARLINK-6061,1 56795U 23078AE  24164.91251903 -.00000036  00000-0  47360-5 0  9994,2 56795  69.9991 124.8081 0002831 271.1508  88.9326 14.98330986 58098,6950.19,96.107,574.022,570.087,0.0
56795.0,STARLINK-6061,PAYLOAD,2024-06-13 04:18:33,14.98332978,0.0002834,69.9992,124.1353,271.0612,89.0222,-3.0599e-06,-1.3e-06,0.0,0 STARLINK-6061,1 56795U 23078AE  24165.17955779 -.00000130  00000-0 -30599-5 0  9997,2 56795  69.9992 124.1353 0002834 271.0612  89.0222 14.98332978 58395,6950.184,96.107,574.018,570.079,0.0
56795.0,STARLINK-6061,PAYLOAD,2024-06-13 13:55:22,14.98331821,0.0002837,69.9993,123.1254,271.5711,88.5123,-5.2587e-06,-1.56e-06,0.0,0 STARLINK-6061,1 56795U 23078AE  24165.58011803 -.00000156  00000-0 -52587-5 0  9992,2 56795  69.9993 123.1254 0002837 271.5711  88.5123 14.98331821 58191,6950.187,96.107,574.024,570.08,0.0
